{
    "NOAA 15": [
        "1 25338U 98030A   25193.55639024  .00000171  00000+0  87955-4 0  9991",
        "2 25338  98.5338 217.8918 0009007 261.6730  98.3430 14.26995485412856"
    ],
    "NOAA 18": [
        "1 28654U 05018A   25193.53484721  .00000061  00000+0  55606-4 0  9995",
        "2 28654  98.8421 272.6403 0014830  39.9448 320.2813 14.13618307 38325"
    ],
    "NOAA 19": [
        "1 33591U 09005A   25193.54662481  .00000153  00000+0  10558-3 0  9991",
        "2 33591  98.9960 258.4341 0012657 270.4006  89.5716 14.13388264846500"
    ],
    "NOAA 20 (JPSS-1)": [
        "1 43013U 17073A   25193.54457813  .00000023  00000+0  31834-4 0  9993",
        "2 43013  98.7410 131.6978 0001344 128.4810 231.6486 14.19544957396280"
    ],
    "NOAA 21 (JPSS-2)": [
        "1 54234U 22150A   25193.58054878  .00000021  00000+0  30743-4 0  9996",
        "2 54234  98.7273 131.9779 0002767  81.7249 278.4241 14.19543517138365"
    ],
    "METEOR-M 2": [
        "1 40069U 14037A   25193.56662650  .00000061  00000+0  47265-4 0  9994",
        "2 40069  98.4694 177.1749 0004812 312.8164  47.2609 14.21307848571073"
    ],
    "METEOR-M2 2": [
        "1 44387U 19038A   25193.58729110  .00000045  00000+0  39083-4 0  9995",
        "2 44387  98.8760 171.5960 0000236 338.8589  21.2579 14.24215637312951"
    ]
}